{"type": "FeatureCollection", "features": [ {"type": "Feature", "properties": {"norad_id": 37994, "name": "COSMOS 2251 DEB", "group": "cosmos-2251-debris", "lat": -47.30585308533914, "lon": 124.6221725378997, "alt_km": 778.1378821852722, "timestamp": "2025-12-06T20:37:56.473695+00:00", "meta": {"OBJECT_NAME": "COSMOS 2251 DEB", "OBJECT_ID": "1993-036BQV", "EPOCH": "2025-12-06T14:33:51.461568", "MEAN_MOTION": 14.39600672, "ECCENTRICITY": 0.00226366, "INCLINATION": 74.036, "RA_OF_ASC_NODE": 287.0133, "ARG_OF_PERICENTER": 7.675, "MEAN_ANOMALY": 352.4746, "EPHEMERIS_TYPE": 0, "CLASSIFICATION_TYPE": "U", "NORAD_CAT_ID": 37994, "ELEMENT_SET_NO": 999, "REV_AT_EPOCH": 76976, "BSTAR": 0.00070909475, "MEAN_MOTION_DOT": 2.196e-05, "MEAN_MOTION_DDOT": 0}, "tle": {"line1": "1 37994U 93036BQV 25340.60684562  .00002196  00000+0  70909-3 0  9999", "line2": "2 37994  74.0360 287.0133 0022636   7.6750 352.4746 14.39600672769766"}}, "geometry": {"type": "Point", "coordinates": [124.6221725378997, -47.30585308533914]}}, {"type": "Feature", "properties": {"norad_id": 37996, "name": "COSMOS 2251 DEB", "group": "cosmos-2251-debris", "lat": 35.78590725980694, "lon": -134.57681533453157, "alt_km": 802.9961382123847, "timestamp": "2025-12-06T20:37:56.473708+00:00", "meta": {"OBJECT_NAME": "COSMOS 2251 DEB", "OBJECT_ID": "1993-036BQX", "EPOCH": "2025-11-16T18:35:00.708864", "MEAN_MOTION": 14.09591608, "ECCENTRICITY": 0.02219827, "INCLINATION": 74.0658, "RA_OF_ASC_NODE": 248.8308, "ARG_OF_PERICENTER": 5.4709, "MEAN_ANOMALY": 354.8776, "EPHEMERIS_TYPE": 0, "CLASSIFICATION_TYPE": "U", "NORAD_CAT_ID": 37996, "ELEMENT_SET_NO": 999, "REV_AT_EPOCH": 55769, "BSTAR": 0.0096790999, "MEAN_MOTION_DOT": 0.00021331, "MEAN_MOTION_DDOT": 0}, "tle": {"line1": "1 37996U 93036BQX 25320.77431376  .00021331  00000+0  96791-2 0  9998", "line2": "2 37996  74.0658 248.8308 0221982   5.4709 354.8776 14.09591608557693"}}, "geometry": {"type": "Point", "coordinates": [-134.57681533453157, 35.78590725980694]}}, {"type": "Feature", "properties": {"norad_id": 37998, "name": "COSMOS 2251 DEB", "group": "cosmos-2251-debris", "lat": 8.081213257617419, "lon": -111.60595299360534, "alt_km": 732.6487290728892, "timestamp": "2025-12-06T20:37:56.473719+00:00", "meta": {"OBJECT_NAME": "COSMOS 2251 DEB", "OBJECT_ID": "1993-036BQZ", "EPOCH": "2025-11-29T12:31:01.771392", "MEAN_MOTION": 14.45395467, "ECCENTRICITY": 0.00197878, "INCLINATION": 74.0369, "RA_OF_ASC_NODE": 259.7366, "ARG_OF_PERICENTER": 336.2714, "MEAN_ANOMALY": 23.753, "EPHEMERIS_TYPE": 0, "CLASSIFICATION_TYPE": "U", "NORAD_CAT_ID": 37998, "ELEMENT_SET_NO": 999, "REV_AT_EPOCH": 64096, "BSTAR": 0.00059073677, "MEAN_MOTION_DOT": 2.057e-05, "MEAN_MOTION_DDOT": 0}, "tle": {"line1": "1 37998U 93036BQZ 25333.52154828  .00002057  00000+0  59074-3 0  9999", "line2": "2 37998  74.0369 259.7366 0019787 336.2714  23.7530 14.45395467640966"}}, "geometry": {"type": "Point", "coordinates": [-111.60595299360534, 8.081213257617419]}}, {"type": "Feature", "properties": {"norad_id": 38001, "name": "COSMOS 2251 DEB", "group": "cosmos-2251-debris", "lat": -22.342846548344433, "lon": 137.14457446910507, "alt_km": 603.6568413076584, "timestamp": "2025-12-06T20:37:56.473730+00:00", "meta": {"OBJECT_NAME": "COSMOS 2251 DEB", "OBJECT_ID": "1993-036BRC", "EPOCH": "2025-12-06T11:08:14.987040", "MEAN_MOTION": 14.78968143, "ECCENTRICITY": 0.00652918, "INCLINATION": 74.0002, "RA_OF_ASC_NODE": 144.6967, "ARG_OF_PERICENTER": 295.3198, "MEAN_ANOMALY": 95.4785, "EPHEMERIS_TYPE": 0, "CLASSIFICATION_TYPE": "U", "NORAD_CAT_ID": 38001, "ELEMENT_SET_NO": 999, "REV_AT_EPOCH": 74615, "BSTAR": 0.0012854263, "MEAN_MOTION_DOT": 9.815e-05, "MEAN_MOTION_DDOT": 0}, "tle": {"line1": "1 38001U 93036BRC 25340.46406235  .00009815  00000+0  12854-2 0  9991", "line2": "2 38001  74.0002 144.6967 0065291 295.3198  95.4785 14.78968143746156"}}, "geometry": {"type": "Point", "coordinates": [137.14457446910507, -22.342846548344433]}}, {"type": "Feature", "properties": {"norad_id": 38006, "name": "COSMOS 2251 DEB", "group": "cosmos-2251-debris", "lat": 20.50435536352895, "lon": -137.0957043621252, "alt_km": 789.3390480643893, "timestamp": "2025-12-06T20:37:56.473740+00:00", "meta": {"OBJECT_NAME": "COSMOS 2251 DEB", "OBJECT_ID": "1993-036BRH", "EPOCH": "2025-12-04T21:24:00.571392", "MEAN_MOTION": 14.45613673, "ECCENTRICITY": 0.0074849, "INCLINATION": 73.8488, "RA_OF_ASC_NODE": 52.8364, "ARG_OF_PERICENTER": 2.834, "MEAN_ANOMALY": 357.3225, "EPHEMERIS_TYPE": 0, "CLASSIFICATION_TYPE": "U", "NORAD_CAT_ID": 38006, "ELEMENT_SET_NO": 999, "REV_AT_EPOCH": 62846, "BSTAR": 0.0044211, "MEAN_MOTION_DOT": 0.00016183, "MEAN_MOTION_DDOT": 0}, "tle": {"line1": "1 38006U 93036BRH 25338.89167328  .00016183  00000+0  44211-2 0  9995", "line2": "2 38006  73.8488  52.8364 0074849   2.8340 357.3225 14.45613673628467"}}, "geometry": {"type": "Point", "coordinates": [-137.0957043621252, 20.50435536352895]}}, {"type": "Feature", "properties": {"norad_id": 38054, "name": "COSMOS 2251 DEB", "group": "cosmos-2251-debris", "lat": -57.727210963571935, "lon": 122.52006946212263, "alt_km": 773.096608028759, "timestamp": "2025-12-06T20:37:56.473753+00:00", "meta": {"OBJECT_NAME": "COSMOS 2251 DEB", "OBJECT_ID": "1993-036BRL", "EPOCH": "2025-12-02T22:19:42.729888", "MEAN_MOTION": 13.62240867, "ECCENTRICITY": 0.03612337, "INCLINATION": 73.958, "RA_OF_ASC_NODE": 281.8404, "ARG_OF_PERICENTER": 261.8039, "MEAN_ANOMALY": 157.9186, "EPHEMERIS_TYPE": 0, "CLASSIFICATION_TYPE": "U", "NORAD_CAT_ID": 38054, "ELEMENT_SET_NO": 999, "REV_AT_EPOCH": 67046, "BSTAR": 0.0040803835, "MEAN_MOTION_DOT": 4.866e-05, "MEAN_MOTION_DDOT": 0}, "tle": {"line1": "1 38054U 93036BRL 25336.93035567  .00004866  00000+0  40804-2 0  9999", "line2": "2 38054  73.9580 281.8404 0361233 261.8039 157.9186 13.62240867670467"}}, "geometry": {"type": "Point", "coordinates": [122.52006946212263, -57.727210963571935]}}, {"type": "Feature", "properties": {"norad_id": 38055, "name": "COSMOS 2251 DEB", "group": "cosmos-2251-debris", "lat": -73.99824638524164, "lon": 128.87902551971496, "alt_km": 635.4417571435133, "timestamp": "2025-12-06T20:37:56.473764+00:00", "meta": {"OBJECT_NAME": "COSMOS 2251 DEB", "OBJECT_ID": "1993-036BRM", "EPOCH": "2025-12-05T22:20:11.945184", "MEAN_MOTION": 14.76856184, "ECCENTRICITY": 0.00656782, "INCLINATION": 74.0092, "RA_OF_ASC_NODE": 220.1259, "ARG_OF_PERICENTER": 349.1321, "MEAN_ANOMALY": 24.6539, "EPHEMERIS_TYPE": 0, "CLASSIFICATION_TYPE": "U", "NORAD_CAT_ID": 38055, "ELEMENT_SET_NO": 999, "REV_AT_EPOCH": 60582, "BSTAR": 0.0013919987, "MEAN_MOTION_DOT": 0.00010113, "MEAN_MOTION_DDOT": 0}, "tle": {"line1": "1 38055U 93036BRM 25339.93069381  .00010113  00000+0  13920-2 0  9995", "line2": "2 38055  74.0092 220.1259 0065678 349.1321  24.6539 14.76856184605821"}}, "geometry": {"type": "Point", "coordinates": [128.87902551971496, -73.99824638524164]}}, {"type": "Feature", "properties": {"norad_id": 38060, "name": "COSMOS 2251 DEB", "group": "cosmos-2251-debris", "lat": 49.70873625267963, "lon": -33.67689498971155, "alt_km": 635.479653911696, "timestamp": "2025-12-06T20:37:56.473775+00:00", "meta": {"OBJECT_NAME": "COSMOS 2251 DEB", "OBJECT_ID": "1993-036BRS", "EPOCH": "2025-11-30T16:46:11.567136", "MEAN_MOTION": 14.63742552, "ECCENTRICITY": 0.0057629, "INCLINATION": 74.0424, "RA_OF_ASC_NODE": 318.4162, "ARG_OF_PERICENTER": 67.815, "MEAN_ANOMALY": 292.9119, "EPHEMERIS_TYPE": 0, "CLASSIFICATION_TYPE": "U", "NORAD_CAT_ID": 38060, "ELEMENT_SET_NO": 999, "REV_AT_EPOCH": 71788, "BSTAR": 0.00051174098, "MEAN_MOTION_DOT": 2.701e-05, "MEAN_MOTION_DDOT": 0}, "tle": {"line1": "1 38060U 93036BRS 25334.69874499  .00002701  00000+0  51174-3 0  9991", "line2": "2 38060  74.0424 318.4162 0057629  67.8150 292.9119 14.63742552717884"}}, "geometry": {"type": "Point", "coordinates": [-33.67689498971155, 49.70873625267963]}}, {"type": "Feature", "properties": {"norad_id": 38062, "name": "COSMOS 2251 DEB", "group": "cosmos-2251-debris", "lat": 73.996633603508, "lon": 33.363304123864154, "alt_km": 568.9678215503773, "timestamp": "2025-12-06T20:37:56.473786+00:00", "meta": {"OBJECT_NAME": "COSMOS 2251 DEB", "OBJECT_ID": "1993-036BRU", "EPOCH": "2025-12-06T04:12:38.753856", "MEAN_MOTION": 14.94290132, "ECCENTRICITY": 0.00122346, "INCLINATION": 74.0094, "RA_OF_ASC_NODE": 303.7202, "ARG_OF_PERICENTER": 72.1633, "MEAN_ANOMALY": 298.7726, "EPHEMERIS_TYPE": 0, "CLASSIFICATION_TYPE": "U", "NORAD_CAT_ID": 38062, "ELEMENT_SET_NO": 999, "REV_AT_EPOCH": 62932, "BSTAR": 0.0035053507, "MEAN_MOTION_DOT": 0.00037877, "MEAN_MOTION_DDOT": 0}, "tle": {"line1": "1 38062U 93036BRU 25340.17544854  .00037877  00000+0  35054-2 0  9992", "line2": "2 38062  74.0094 303.7202 0012234  72.1633 298.7726 14.94290132629324"}}, "geometry": {"type": "Point", "coordinates": [33.363304123864154, 73.996633603508]}}, {"type": "Feature", "properties": {"norad_id": 38064, "name": "COSMOS 2251 DEB", "group": "cosmos-2251-debris", "lat": 71.49084943921719, "lon": -103.5541664852499, "alt_km": 728.93847822509, "timestamp": "2025-12-06T20:37:56.473799+00:00", "meta": {"OBJECT_NAME": "COSMOS 2251 DEB", "OBJECT_ID": "1993-036BRW", "EPOCH": "2025-12-06T10:16:53.026464", "MEAN_MOTION": 14.56217133, "ECCENTRICITY": 0.00475088, "INCLINATION": 74.0221, "RA_OF_ASC_NODE": 136.1184, "ARG_OF_PERICENTER": 256.6769, "MEAN_ANOMALY": 102.9095, "EPHEMERIS_TYPE": 0, "CLASSIFICATION_TYPE": "U", "NORAD_CAT_ID": 38064, "ELEMENT_SET_NO": 999, "REV_AT_EPOCH": 71773, "BSTAR": 0.0018089142, "MEAN_MOTION_DOT": 8.099e-05, "MEAN_MOTION_DDOT": 0}, "tle": {"line1": "1 38064U 93036BRW 25340.42839151  .00008099  00000+0  18089-2 0  9992", "line2": "2 38064  74.0221 136.1184 0047508 256.6769 102.9095 14.56217133717732"}}, "geometry": {"type": "Point", "coordinates": [-103.5541664852499, 71.49084943921719]}}]}